              M50 Cartesian                         M50 Keplerian  
    -----------------------------------       --------------------------------
     X    =       -1723577.19                 A    =         6778329.88  meter
     Y    =        4092258.87  meter          E    =           .0011968
     Z    =       -5132097.80                 I    =           51.62558
     XDOT =      -7407.431861                 Wp   =          103.32404
     YDOT =      -1134.548371  meter/sec      RA   =          179.07567  deg
     ZDOT =       1583.475128                 TA   =          181.96380
                                              MA   =          181.96851
                                              Ha   =            220.477  n.mi
                                              Hp   =            215.329
 
              M50 Cartesian                         J2K Cartesian  
    -----------------------------------       --------------------------------
     X    =       -5654780.81                 X    =        -1744280.22
     Y    =       13426046.16  feet           Y    =         4072868.24  meter
     Z    =      -16837591.21                 Z    =        -5140521.34
     XDOT =     -24302.597970                 XDOT =       -7401.886364
     YDOT =      -3722.271559  feet/sec       YDOT =       -1217.351978  meter/sec
     ZDOT =       5195.128372                 ZDOT =        1547.505308
 
              TDR Cartesian                         TDR Cartesian  
    -----------------------------------       --------------------------------
     X    =       -7853879.73                 X    =        -2393862.54
     Y    =       12218757.19  feet           Y    =         3724277.19  meter
     Z    =      -16874782.53                 Z    =        -5143433.71
     XDOT =     -22389.160060                 XDOT =       -6824.215986
     YDOT =      -7433.624864  feet/sec       YDOT =       -2265.768859  meter/sec
     ZDOT =       5039.181153                 ZDOT =        1535.942415
  
  
    The mean element set is posted at the UTC for which position is
    just north of the next ascending node relative to the above
    vector time
 
 
    TWO LINE MEAN ELEMENT SET
  
    ISS
    1 25544U 98067A   16072.51344366  .00016717  00000-0  10270-3 0  9016
    2 25544  51.6431 180.1610 0001705 273.1618  86.9340 15.54061832 29949
  
  
    Satellite: ISS
    Catalog Number: 25544
    Epoch time:      16072.51344366   =   yrday.fracday
    Element set:     901
    Inclination:       51.6431  deg
    RA of node:       180.1610  deg
    Eccentricity:     .0001705     
    Arg of perigee:   273.1618  deg
    Mean anomaly:      86.9340  deg
    Mean motion:   15.54061832  rev/day
    Decay rate:    1.67170E-04  rev/day^2
    Epoch rev:            2994
    Checksum:              289
 
 
    Coasting Arc #3 (Orbit 3009)
    ---------------------------------------
 
    Vector Time (GMT): 2016/073/12:00:00.000
    Vector Time (MET): N/A
    Weight (LBS)     : 890369.9
 
              M50 Cartesian                         M50 Keplerian  
    -----------------------------------       --------------------------------
     X    =        3376017.91                 A    =         6781136.98  meter
     Y    =       -3868158.69  meter          E    =           .0007808
     Z    =        4425842.45                 I    =           51.66718
     XDOT =       6624.489186                 Wp   =           63.33543
     YDOT =       1961.224296  meter/sec      RA   =          174.08169  deg
     ZDOT =      -3331.074791                 TA   =           60.32242
                                              MA   =           60.24471
                                              Ha   =            220.436  n.mi
                                              Hp   =            215.363
 
              M50 Cartesian                         J2K Cartesian  
    -----------------------------------       --------------------------------
     X    =       11076174.25                 X    =         3397522.87
     Y    =      -12690809.34  feet           Y    =        -3830285.06  meter
     Z    =       14520480.46                 Z    =         4442294.97
     XDOT =      21733.888405                 XDOT =        6618.246870
     YDOT =       6434.462912  feet/sec       YDOT =        2035.268450  meter/sec
     ZDOT =     -10928.723069                 ZDOT =       -3298.910074
 
              TDR Cartesian                         TDR Cartesian  
    -----------------------------------       --------------------------------
     X    =       12888530.63                 X    =         3928424.14
     Y    =      -10748369.64  feet           Y    =        -3276103.07  meter
     Z    =       14592496.66                 Z    =         4447792.98
     XDOT =      19693.997315                 XDOT =        6002.730382
     YDOT =       8931.853592  feet/sec       YDOT =        2722.428975  meter/sec
     ZDOT =     -10789.403910                 ZDOT =       -3288.610312
  
  
    The mean element set is posted at the UTC for which position is
    just north of the next ascending node relative to the above
    vector time
 
 
    TWO LINE MEAN ELEMENT SET
  
    ISS
    1 25544U 98067A   16073.54232770  .00016717  00000-0  10270-3 0  9026
    2 25544  51.6433 175.0324 0001665 280.6957  79.4008 15.54058758 30101
  
  
    Satellite: ISS
    Catalog Number: 25544
    Epoch time:      16073.54232770   =   yrday.fracday
    Element set:     902
    Inclination:       51.6433  deg
    RA of node:       175.0324  deg
    Eccentricity:     .0001665     
    Arg of perigee:   280.6957  deg
    Mean anomaly:      79.4008  deg
    Mean motion:   15.54058758  rev/day
    Decay rate:    1.67170E-04  rev/day^2
    Epoch rev:            3010
    Checksum:              301
 
 
    Coasting Arc #4 (Orbit 3024)
    ---------------------------------------
 
    Vector Time (GMT): 2016/074/12:00:00.000
    Vector Time (MET): N/A
    Weight (LBS)     : 890369.9
 
              M50 Cartesian                         M50 Keplerian  
    -----------------------------------       --------------------------------
     X    =       -4756353.64                 A    =         6784804.97  meter
     Y    =        3555421.01  meter          E    =           .0003089
     Z    =       -3283205.45                 I    =           51.71123
     XDOT =      -5344.758580                 Wp   =           72.07026
     YDOT =      -2779.480213  meter/sec      RA   =          169.10003  deg
     ZDOT =       4737.571966                 TA   =          249.87202
                                              MA   =          249.90525
                                              Ha   =            220.415  n.mi
                                              Hp   =            215.310
 
              M50 Cartesian                         J2K Cartesian  
    -----------------------------------       --------------------------------
     X    =      -15604834.76                 X    =        -4779809.36
     Y    =       11664767.10  feet           Y    =         3502100.83  meter
     Z    =      -10771671.41                 Z    =        -3306367.90
     XDOT =     -17535.297178                 XDOT =       -5336.293554
     YDOT =      -9119.029570  feet/sec       YDOT =       -2839.201052  meter/sec
     ZDOT =      15543.215111                 ZDOT =        4711.629352
 
              TDR Cartesian                         TDR Cartesian  
    -----------------------------------       --------------------------------
     X    =      -17058284.20                 X    =        -5199365.02
     Y    =        9295382.20  feet           Y    =         2833232.50  meter
     Z    =      -10872781.35                 Z    =        -3314023.76
     XDOT =     -15453.636502                 XDOT =       -4710.268406
     YDOT =     -10327.361317  feet/sec       YDOT =       -3147.779729  meter/sec
     ZDOT =      15431.019383                 ZDOT =        4703.374708
  
  
    The mean element set is posted at the UTC for which position is
    just north of the next ascending node relative to the above
    vector time
 
 
    TWO LINE MEAN ELEMENT SET
  
    ISS
    1 25544U 98067A   16074.50688777  .00016717  00000-0  10270-3 0  9036
    2 25544  51.6431 170.2253 0001847 288.8910  71.2043 15.54082866 30250
  
  
    Satellite: ISS
    Catalog Number: 25544
    Epoch time:      16074.50688777   =   yrday.fracday
    Element set:     903
    Inclination:       51.6431  deg
    RA of node:       170.2253  deg
    Eccentricity:     .0001847     
    Arg of perigee:   288.8910  deg
    Mean anomaly:      71.2043  deg
    Mean motion:   15.54082866  rev/day
    Decay rate:    1.67170E-04  rev/day^2
    Epoch rev:            3025
    Checksum:              310
 
 
    Coasting Arc #5 (Orbit 3040)
    ---------------------------------------
 
    Vector Time (GMT): 2016/075/12:00:00.000
    Vector Time (MET): N/A
    Weight (LBS)     : 890369.9
 
              M50 Cartesian                         M50 Keplerian  
    -----------------------------------       --------------------------------
     X    =        5769954.64                 A    =         6787997.96  meter
     Y    =       -3092659.11  meter          E    =           .0012266
     Z    =        1772208.55                 I    =           51.75250
     XDOT =       3684.672706                 Wp   =          115.07295
     YDOT =       3605.879280  meter/sec      RA   =          164.13015  deg
     ZDOT =      -5678.324421                 TA   =           45.49272
                                              MA   =           45.39254
                                              Ha   =            220.448  n.mi
                                              Hp   =            215.235
 
